265P/LINEAR,e,14.3649,342.9259,33.4613,4.254799,0.1123015,0.64760660,54.6768,06/11.0/2022,2000,g 14.5,4.0
# From MPEC 2021-F20
266P/Christensen,e,3.4271,4.9984,97.7021,3.532401,0.1484565,0.33964381,116.2100,06/11.0/2022,2000,g 14.7,4.0
# From MPC114608
267P/LONEOS,e,6.1417,228.5815,114.2106,3.211200,0.1712786,0.61441603,242.9069,06/11.0/2022,2000,g 19.5,4.0
# From MPC 92277
268P/Bernardi,e,15.8647,126.9686,359.8002,4.562394,0.1011381,0.47786545,266.6284,06/11.0/2022,2000,g 14.0,4.0
# From MPC104795
269P/Jedicke,e,7.0778,241.7306,225.7475,7.071702,0.0524105,0.43104124,147.3741,06/11.0/2022,2000,g 10.0,4.0
# From MPC 88332
270P/Gehrels,e,2.9227,223.0122,209.7725,6.661336,0.0573274,0.46843306,188.5537,06/11.0/2022,2000,g  8.0,4.0
# From MPC 92277
271P/van Houten-Lemmon,e,6.8723,9.3184,36.3872,7.038515,0.0527816,0.39522254,171.6674,06/11.0/2022,2000,g 11.0,4.0
# From MPEC 2022-C56
272P/NEAT,e,18.0743,109.4702,27.8978,4.460054,0.1046391,0.45467327,356.2273,06/11.0/2022,2000,g 16.0,2.0
# From MPC 82723
273P/Pons-Gambart,e,136.7572,320.3991,20.3241,31.93376,0.0054617,0.97424697,0.0000,12/20.2549/2012,2000,g 11.5,4.0
# From MPEC 2022-L66
274P/Tombaugh-Tenagra,e,15.8154,81.3385,38.4682,4.375845,0.1076741,0.43938642,6.8417,06/11.0/2022,2000,g 13.0,4.0
# From MPC 81862
275P/Hermann,e,21.2753,348.7574,174.0012,5.776004,0.0710007,0.71264630,246.1441,06/11.0/2022,2000,g 17.0,4.0
# From MPEC 2022-K19
276P/Vorobjov,e,14.8101,211.3623,199.5500,5.322726,0.0802607,0.26764850,286.4358,06/11.0/2022,2000,g 11.5,4.0
# From MPEC 2021-F20
277P/LINEAR,e,16.7769,276.3261,152.3176,3.853415,0.1302973,0.50595774,68.7670,06/11.0/2022,2000,g 15.1,4.0
# From MPEC 2021-S45
278P/McNaught,e,6.6963,15.3826,237.7844,3.687429,0.1391934,0.43611439,88.7189,06/11.0/2022,2000,g 14.0,4.0
# From MPEC 2022-K19
279P/LaSagra,e,5.0525,346.2331,5.8509,3.572886,0.1459404,0.39871123,314.3814,06/11.0/2022,2000,g 14.0,4.0
# From MPEC 2022-K19
280P/Larsen,e,11.7737,131.3930,104.7528,4.530012,0.1022245,0.41731969,317.0934,06/11.0/2022,2000,g 12.5,4.0
# From MPEC 2021-W31
281P/MOSS,e,4.7188,87.1806,26.6602,4.875103,0.0915648,0.17242726,338.4236,06/11.0/2022,2000,g 11.0,4.0
# From MPC133426
282P/,e,5.8117,9.2978,217.6312,4.239388,0.1129144,0.18831287,25.8994,06/11.0/2022,2000,g 13.5,2.0
# From MPEC 2022-K19
283P/Spacewatch,e,14.4552,161.1295,22.2334,4.136897,0.1171365,0.48460245,32.3340,06/11.0/2022,2000,g 16.0,2.0
# From MPEC 2022-K19
284P/McNaught,e,11.8613,144.2608,202.4122,3.676046,0.1398404,0.37550961,37.9562,06/11.0/2022,2000,g 13.0,4.0
# From MPC 85339
285P/LINEAR,e,25.0383,185.5079,178.4391,4.507834,0.1029798,0.61860503,337.8197,06/11.0/2022,2000,g 15.0,4.0
# From MPEC 2021-O56
286P/Christensen,e,17.0434,283.9546,24.8611,4.111073,0.1182419,0.42569655,3.4703,06/11.0/2022,2000,g 14.0,4.0
# From MPEC 2022-L66
287P/Christensen,e,16.3201,139.0421,189.0689,4.163383,0.1160204,0.27109130,314.8736,06/11.0/2022,2000,g 13.5,4.0
# From MPC133426
288P/,e,3.2381,83.1266,280.2405,3.049447,0.1850855,0.20086468,18.7266,06/11.0/2022,2000,g 16.0,2.0
# From MPEC 2022-K19
289P/Blanpain,e,5.8972,68.8831,9.8430,3.045983,0.1854014,0.68575227,167.4122,06/11.0/2022,2000,g 19.0,4.0
# From MPC 95214
290P/Jager,e,20.0612,302.6788,181.8774,6.215501,0.0636048,0.62752060,194.5251,06/11.0/2022,2000,g 10.5,4.0
# From MPEC 2021-N06
291P/NEAT,e,6.2986,237.8032,173.5843,4.540824,0.1018596,0.43567603,326.6155,06/11.0/2022,2000,g 13.0,4.0
# From MPEC 2022-K19
292P/Li,e,24.2788,90.9462,319.4903,6.103957,0.0653562,0.58916483,199.4113,06/11.0/2022,2000,g 12.5,4.0
# From MPEC 2022-L66
293P/Spacewatch,e,9.0580,78.3993,40.9908,3.641995,0.1418061,0.41826174,76.4177,06/11.0/2022,2000,g 14.5,4.0
# From MPEC 2020-SI8
294P/LINEAR,e,18.0229,312.0248,235.5812,3.189373,0.1730399,0.60200695,159.3065,06/11.0/2022,2000,g 15.5,4.0
# From MPEC 2022-K19
295P/LINEAR,e,21.0740,7.4395,72.8724,5.305862,0.0806437,0.61667599,238.7278,06/11.0/2022,2000,g 12.0,4.0
# From MPEC 2021-N06
296P/Garradd,e,25.2355,263.5749,350.0355,3.493702,0.1509299,0.47873439,95.2915,06/11.0/2022,2000,g 14.0,4.0
# From MPC102956
297P/Beshore,e,10.3089,97.5214,133.0404,3.452657,0.1536293,0.32040647,77.2221,06/11.0/2022,2000,g 15.0,4.0
# From MPC114609
298P/Christensen,e,7.8708,52.8219,100.6521,3.590641,0.1448592,0.38633585,93.1296,06/11.0/2022,2000,g 15.0,4.0
# From MPEC 2022-CN4
299P/Catalina-PANSTARRS,e,10.4696,271.6158,323.8189,4.387005,0.1072635,0.28103752,285.9860,06/11.0/2022,2000,g 11.5,4.0
# From MPEC 2022-ED3
300P/Catalina,e,5.6740,95.6345,222.9324,2.699416,0.2222283,0.69175087,292.4227,06/11.0/2022,2000,g 16.0,4.0
# From MPC 89014
301P/LINEAR-NEAT,e,10.3396,351.1745,193.6194,5.739790,0.0716737,0.58521164,204.1386,06/11.0/2022,2000,g 13.0,4.0
# From MPEC 2022-K19
302P/Lemmon-PANSTARRS,e,6.0336,121.7447,208.3874,4.274291,0.1115342,0.23031887,248.3555,06/11.0/2022,2000,g 12.5,4.0
# From MPC 92278
303P/NEAT,e,7.0215,347.9718,356.9440,5.045102,0.0869760,0.51092669,242.6771,06/11.0/2022,2000,g 13.5,4.0
# From MPEC 2022-K19
304P/Ory,e,2.6071,58.9141,335.2483,3.150729,0.1762331,0.60078866,117.6050,06/11.0/2022,2000,g 16.5,4.0
# From MPC101100
305P/Skiff,e,11.6617,240.1031,147.3371,4.641828,0.0985532,0.69380051,272.2731,06/11.0/2022,2000,g 18.0,4.0
# From MPC 92278
306P/LINEAR,e,8.3111,341.3735,0.8706,3.123806,0.1785163,0.59328931,155.2881,06/11.0/2022,2000,g 19.0,4.0
# From MPC 92278
307P/LINEAR,e,4.4357,158.1689,222.1363,5.790629,0.0707319,0.67534422,192.8272,06/11.0/2022,2000,g 15.0,4.0
# From MPEC 2022-C56
308P/Lagerkvist-Carsenty,e,4.8531,63.0537,333.6180,6.600878,0.0581168,0.36425113,150.5184,06/11.0/2022,2000,g 13.0,2.0
# From MPC 94284
309P/LINEAR,e,17.0237,10.1473,49.9369,4.372642,0.1077924,0.61801383,289.1567,06/11.0/2022,2000,g 15.0,4.0
# From MPC 98566
310P/Hill,e,13.1278,8.9217,31.7759,4.180472,0.1153098,0.42217304,302.3125,06/11.0/2022,2000,g 13.5,4.0
# From MPEC 2021-BE3
311P/PANSTARRS,e,4.9698,279.2136,144.5216,2.188316,0.3044661,0.11577398,186.2155,06/11.0/2022,2000,g 17.0,4.0
# From MPEC 2021-BE3
312P/NEAT,e,19.7675,144.6704,207.6143,3.468534,0.1525756,0.42786230,95.1809,06/11.0/2022,2000,g 16.0,4.0
# From MPEC 2021-S45
313P/Gibbs,e,10.9803,105.9674,254.7927,3.163638,0.1751556,0.23504024,137.6947,06/11.0/2022,2000,g 15.0,4.0
# From MPC105243
314P/Montani,e,3.9833,267.6066,213.9972,7.261901,0.0503650,0.41632486,104.3928,06/11.0/2022,2000,g  9.5,4.0
# From MPEC 2021-N06
315P/LONEOS,e,17.7404,68.8131,65.7308,4.940083,0.0897641,0.52093703,181.6212,06/11.0/2022,2000,g 11.0,4.0
# From MPC 92279
316P/LONEOS-Christensen,e,9.8257,246.4126,192.4236,4.375452,0.1076886,0.15595335,264.5247,06/11.0/2022,2000,g 13.5,4.0
# From MPEC 2020-C98
317P/WISE,e,11.9515,275.4905,334.8538,2.962922,0.1932519,0.57049897,120.3876,06/11.0/2022,2000,g 17.5,4.0
# From MPC102103
318P/McNaught-Hartley,e,17.8852,35.5279,313.2750,7.501924,0.0479673,0.67528391,116.0847,06/11.0/2022,2000,g  8.5,6.0
# From MPC 97499
319P/Catalina-McNaught,e,15.0945,111.3679,203.6771,3.567114,0.1462947,0.66668843,10.4703,06/11.0/2022,2000,g 15.0,4.0
# From MPC 96281
320P/McNaught,e,4.9077,295.9388,0.7836,3.093865,0.1811140,0.68550309,92.3556,06/11.0/2022,2000,g 20.5,4.0
# From MPC105243
321P/SOHO,e,20.0938,165.0169,172.7493,2.423401,0.2612560,0.98111057,0.0000,10/26.5337/2023,2000,g 20.0,4.0
# From MPC102103
322P/SOHO,e,11.4682,351.5310,56.8727,2.507838,0.2481731,0.97992507,0.0000,08/21.0809/2023,2000,g 19.0,4.0
# From MPEC 2016-Y36
323P/SOHO,e,5.3326,324.3883,353.0493,2.583121,0.2374034,0.98481222,0.0000,01/17.8122/2021,2000,g 20.0,4.0
# From MPEC 2021-W31
324P/LaSagra,e,21.4044,270.5848,57.5351,3.094504,0.1810579,0.15385948,72.7487,06/11.0/2022,2000,g 13.0,4.0
# From MPEC 2022-L66
325P/Yang-Gao,e,16.6944,257.5596,343.7056,3.522652,0.1490732,0.59336414,11.0028,06/11.0/2022,2000,g 14.0,4.0
# From MPC103849
326P/Hill,e,2.4710,99.8088,278.6337,4.062659,0.1203617,0.31811975,291.6902,06/11.0/2022,2000,g 13.5,4.0
# From MPEC 2022-L66
327P/VanNess,e,36.2511,173.9851,185.0417,3.562973,0.1465498,0.56327411,347.7742,06/11.0/2022,2000,g 16.0,4.0
# From MPC109148
328P/LONEOS-Tucker,e,17.6730,341.6345,30.5347,4.192426,0.1148169,0.55260283,270.6852,06/11.0/2022,2000,g 14.5,4.0
# From MPC101101
329P/LINEAR-Catalina,e,21.6910,87.6616,343.5316,5.189492,0.0833713,0.67778992,198.8087,06/11.0/2022,2000,g 13.5,4.0
# From MPEC 2022-K19
330P/Catalina,e,15.7015,293.0880,188.8874,6.624525,0.0578059,0.54849721,122.2909,06/11.0/2022,2000,g 12.0,4.0
# From MPEC 2022-C56
331P/Gibbs,e,9.7383,216.7570,184.3072,3.005184,0.1891897,0.04118008,116.6618,06/11.0/2022,2000,g 12.0,4.0
# From MPEC 2016-K18
332P/Ikeya-Murakami,e,9.3801,3.7865,152.3203,3.088369,0.1815977,0.48936255,53.8666,06/11.0/2022,2000,g 18.0,4.0
# From MPEC 2016-EI8
332P-B/Ikeya-Murakami,e,9.3805,3.8028,152.3711,3.082329,0.1821317,0.48970701,359.9699,03/17.0/2016,2000,g 19.0,4.0
# From MPEC 2016-K18
332P-C/Ikeya-Murakami,e,9.3791,3.7869,152.3116,3.088335,0.1816007,0.48936801,53.8817,06/11.0/2022,2000,g 16.5,4.0
# From MPEC 2016-ED0
332P-D/Ikeya-Murakami,e,9.3761,3.7923,152.4393,3.081138,0.1822373,0.48977814,359.9486,03/17.0/2016,2000,g 19.0,4.0
# From MPEC 2016-ED0
332P-E/Ikeya-Murakami,e,9.3774,3.8228,152.2825,3.079877,0.1823493,0.48922008,359.9889,03/17.0/2016,2000,g 21.0,4.0
# From MPEC 2016-ED0
332P-F/Ikeya-Murakami,e,9.5293,3.4757,152.8203,3.163214,0.1751908,0.49918860,359.8501,03/17.0/2016,2000,g 21.0,4.0
# From MPEC 2016-ED0
332P-G/Ikeya-Murakami,e,9.2523,3.6955,154.4000,3.050519,0.1849880,0.49200362,359.9006,03/19.0/2016,2000,g 19.0,4.0
# From MPC100285
332P-H/Ikeya-Murakami,e,9.3796,3.7866,152.3122,3.088519,0.1815844,0.48940324,53.8118,06/11.0/2022,2000,g 19.0,4.0
# From MPEC 2016-ED0
332P-I/Ikeya-Murakami,e,9.3791,3.8048,152.3297,3.081767,0.1821815,0.48955490,359.9360,03/17.0/2016,2000,g 20.5,2.0
# From MPEC 2016-EI8
332P-J/Ikeya-Murakami,e,9.4296,3.6729,152.7712,3.115165,0.1792596,0.49429435,359.8613,03/17.0/2016,2000,g 20.5,2.0
# From MPEC 2020-L06
